ORBVIEW 2 (SEASTAR)     
1 24883U 97037A   25335.41378963  .00000394  00000+0  15342-3 0  9993
2 24883  98.8452 132.2034 0002232  15.7211 344.4042 14.35403003494375
SL-16 R/B               
1 25400U 98043G   25335.43170281  .00000106  00000+0  63231-4 0  9994
2 25400  98.8107 283.1874 0008947 303.3583  56.6740 14.26021119424984
SL-16 R/B               
1 25407U 98045B   25335.46329186  .00000198  00000+0  12428-3 0  9998
2 25407  71.0126  28.1411 0007594 193.5957 166.4963 14.16174353413196
ISS (ZARYA)             
1 25544U 98067A   25335.38269144  .00009617  00000+0  18108-3 0  9998
2 25544  51.6310 198.7026 0003646 190.2550 169.8364 15.49224672541090
CZ-4B R/B               
1 25732U 99025C   25335.10717095  .00000108  00000+0  73338-4 0  9998
2 25732  98.6786  16.6465 0036068 268.3730 145.9381 14.18239029374199
OKEAN-O                 
1 25860U 99039A   25335.43243581  .00000944  00000+0  13131-3 0  9997
2 25860  97.9619  31.2312 0000881  75.5098 284.6211 14.80129810419852
SL-16 R/B               
1 25861U 99039B   25335.43839573  .00000792  00000+0  10762-3 0  9998
2 25861  98.0143  29.5882 0014103 211.8930 148.1430 14.81559810422311
DELTA 2 R/B             
1 25876U 99041E   25335.38359519  .00001398  00000+0  26467-3 0  9990
2 25876  51.7620 333.7773 0504853  58.3008 306.6127 14.11353211349141
HELIOS 1B               
1 25977U 99064A   25335.29871064  .00002299  00000+0  26186-3 0  9990
2 25977  98.1755 229.6253 0002237  58.0064 302.1369 14.87205049670639
TERRA                   
1 25994U 99068A   25335.43237594  .00000622  00000+0  13602-3 0  9990
2 25994  97.9765  27.5307 0003356 120.7029 296.2723 14.60931382380735
SL-16 R/B               
1 26070U 00006B   25335.38258457  .00000351  00000+0  20274-3 0  9997
2 26070  71.0026 304.5372 0017816 324.5563  35.4374 14.15806057334641
TITAN 4B R/B            
1 26474U 00047B   25335.40651705  .00004321  00000+0  27869-3 0  9994
2 26474  67.9897 316.6820 0039792 157.9386 202.3487 15.08648090378089
