CCSDS_OMM_VERS = 2.0
CREATION_DATE  = 
ORIGINATOR     = 

OBJECT_NAME    = ORBVIEW 2 (SEASTAR)
OBJECT_ID      = 1997-037A
CENTER_NAME    = EARTH
REF_FRAME      = TEME
TIME_SYSTEM    = UTC
MEAN_ELEMENT_THEORY = SGP/SGP4

EPOCH          = 2025-12-01T09:55:51.424032
MEAN_MOTION    = 14.35403003
ECCENTRICITY   = .0002232
INCLINATION    = 98.8452
RA_OF_ASC_NODE = 132.2034
ARG_OF_PERICENTER = 15.7211
MEAN_ANOMALY   = 344.4042

EPHEMERIS_TYPE = 0
CLASSIFICATION_TYPE = U
NORAD_CAT_ID   = 24883
ELEMENT_SET_NO = 999
REV_AT_EPOCH   = 49437
BSTAR          = .15342E-3
MEAN_MOTION_DOT = .394E-5
MEAN_MOTION_DDOT = 0

CCSDS_OMM_VERS = 2.0
CREATION_DATE  = 
ORIGINATOR     = 

OBJECT_NAME    = SL-16 R/B
OBJECT_ID      = 1998-043G
CENTER_NAME    = EARTH
REF_FRAME      = TEME
TIME_SYSTEM    = UTC
MEAN_ELEMENT_THEORY = SGP/SGP4

EPOCH          = 2025-12-01T10:21:39.122784
MEAN_MOTION    = 14.26021119
ECCENTRICITY   = .0008947
INCLINATION    = 98.8107
RA_OF_ASC_NODE = 283.1874
ARG_OF_PERICENTER = 303.3583
MEAN_ANOMALY   = 56.6740

EPHEMERIS_TYPE = 0
CLASSIFICATION_TYPE = U
NORAD_CAT_ID   = 25400
ELEMENT_SET_NO = 999
REV_AT_EPOCH   = 42498
BSTAR          = .63231E-4
MEAN_MOTION_DOT = .106E-5
MEAN_MOTION_DDOT = 0

CCSDS_OMM_VERS = 2.0
CREATION_DATE  = 
ORIGINATOR     = 

OBJECT_NAME    = SL-16 R/B
OBJECT_ID      = 1998-045B
CENTER_NAME    = EARTH
REF_FRAME      = TEME
TIME_SYSTEM    = UTC
MEAN_ELEMENT_THEORY = SGP/SGP4

EPOCH          = 2025-12-01T11:07:08.416704
MEAN_MOTION    = 14.16174353
ECCENTRICITY   = .0007594
INCLINATION    = 71.0126
RA_OF_ASC_NODE = 28.1411
ARG_OF_PERICENTER = 193.5957
MEAN_ANOMALY   = 166.4963

EPHEMERIS_TYPE = 0
CLASSIFICATION_TYPE = U
NORAD_CAT_ID   = 25407
ELEMENT_SET_NO = 999
REV_AT_EPOCH   = 41319
BSTAR          = .12428E-3
MEAN_MOTION_DOT = .198E-5
MEAN_MOTION_DDOT = 0

CCSDS_OMM_VERS = 2.0
CREATION_DATE  = 
ORIGINATOR     = 

OBJECT_NAME    = ISS (ZARYA)
OBJECT_ID      = 1998-067A
CENTER_NAME    = EARTH
REF_FRAME      = TEME
TIME_SYSTEM    = UTC
MEAN_ELEMENT_THEORY = SGP/SGP4

EPOCH          = 2025-12-01T09:11:04.540416
MEAN_MOTION    = 15.49224672
ECCENTRICITY   = .0003646
INCLINATION    = 51.6310
RA_OF_ASC_NODE = 198.7026
ARG_OF_PERICENTER = 190.2550
MEAN_ANOMALY   = 169.8364

EPHEMERIS_TYPE = 0
CLASSIFICATION_TYPE = U
NORAD_CAT_ID   = 25544
ELEMENT_SET_NO = 999
REV_AT_EPOCH   = 54109
BSTAR          = .18108E-3
MEAN_MOTION_DOT = .9617E-4
MEAN_MOTION_DDOT = 0

CCSDS_OMM_VERS = 2.0
CREATION_DATE  = 
ORIGINATOR     = 

OBJECT_NAME    = CZ-4B R/B
OBJECT_ID      = 1999-025C
CENTER_NAME    = EARTH
REF_FRAME      = TEME
TIME_SYSTEM    = UTC
MEAN_ELEMENT_THEORY = SGP/SGP4

EPOCH          = 2025-12-01T02:34:19.570080
MEAN_MOTION    = 14.18239029
ECCENTRICITY   = .00360688
INCLINATION    = 98.6786
RA_OF_ASC_NODE = 16.6465
ARG_OF_PERICENTER = 268.3730
MEAN_ANOMALY   = 145.9381

EPHEMERIS_TYPE = 0
CLASSIFICATION_TYPE = U
NORAD_CAT_ID   = 25732
ELEMENT_SET_NO = 999
REV_AT_EPOCH   = 37419
BSTAR          = .73338436E-4
MEAN_MOTION_DOT = .108E-5
MEAN_MOTION_DDOT = 0

CCSDS_OMM_VERS = 2.0
CREATION_DATE  = 
ORIGINATOR     = 

OBJECT_NAME    = OKEAN-O
OBJECT_ID      = 1999-039A
CENTER_NAME    = EARTH
REF_FRAME      = TEME
TIME_SYSTEM    = UTC
MEAN_ELEMENT_THEORY = SGP/SGP4

EPOCH          = 2025-12-01T10:22:42.453984
MEAN_MOTION    = 14.80129810
ECCENTRICITY   = .0000881
INCLINATION    = 97.9619
RA_OF_ASC_NODE = 31.2312
ARG_OF_PERICENTER = 75.5098
MEAN_ANOMALY   = 284.6211

EPHEMERIS_TYPE = 0
CLASSIFICATION_TYPE = U
NORAD_CAT_ID   = 25860
ELEMENT_SET_NO = 999
REV_AT_EPOCH   = 41985
BSTAR          = .13131E-3
MEAN_MOTION_DOT = .944E-5
MEAN_MOTION_DDOT = 0

CCSDS_OMM_VERS = 2.0
CREATION_DATE  = 
ORIGINATOR     = 

OBJECT_NAME    = SL-16 R/B
OBJECT_ID      = 1999-039B
CENTER_NAME    = EARTH
REF_FRAME      = TEME
TIME_SYSTEM    = UTC
MEAN_ELEMENT_THEORY = SGP/SGP4

EPOCH          = 2025-12-01T10:31:17.391072
MEAN_MOTION    = 14.81559810
ECCENTRICITY   = .0014103
INCLINATION    = 98.0143
RA_OF_ASC_NODE = 29.5882
ARG_OF_PERICENTER = 211.8930
MEAN_ANOMALY   = 148.1430

EPHEMERIS_TYPE = 0
CLASSIFICATION_TYPE = U
NORAD_CAT_ID   = 25861
ELEMENT_SET_NO = 999
REV_AT_EPOCH   = 42231
BSTAR          = .10762E-3
MEAN_MOTION_DOT = .792E-5
MEAN_MOTION_DDOT = 0

CCSDS_OMM_VERS = 2.0
CREATION_DATE  = 
ORIGINATOR     = 

OBJECT_NAME    = DELTA 2 R/B
OBJECT_ID      = 1999-041E
CENTER_NAME    = EARTH
REF_FRAME      = TEME
TIME_SYSTEM    = UTC
MEAN_ELEMENT_THEORY = SGP/SGP4

EPOCH          = 2025-12-01T09:12:22.624416
MEAN_MOTION    = 14.11353211
ECCENTRICITY   = .0504853
INCLINATION    = 51.7620
RA_OF_ASC_NODE = 333.7773
ARG_OF_PERICENTER = 58.3008
MEAN_ANOMALY   = 306.6127

EPHEMERIS_TYPE = 0
CLASSIFICATION_TYPE = U
NORAD_CAT_ID   = 25876
ELEMENT_SET_NO = 999
REV_AT_EPOCH   = 34914
BSTAR          = .26467E-3
MEAN_MOTION_DOT = .1398E-4
MEAN_MOTION_DDOT = 0

CCSDS_OMM_VERS = 2.0
CREATION_DATE  = 
ORIGINATOR     = 

OBJECT_NAME    = HELIOS 1B
OBJECT_ID      = 1999-064A
CENTER_NAME    = EARTH
REF_FRAME      = TEME
TIME_SYSTEM    = UTC
MEAN_ELEMENT_THEORY = SGP/SGP4

EPOCH          = 2025-12-01T07:10:08.599296
MEAN_MOTION    = 14.87205049
ECCENTRICITY   = .0002237
INCLINATION    = 98.1755
RA_OF_ASC_NODE = 229.6253
ARG_OF_PERICENTER = 58.0064
MEAN_ANOMALY   = 302.1369

EPHEMERIS_TYPE = 0
CLASSIFICATION_TYPE = U
NORAD_CAT_ID   = 25977
ELEMENT_SET_NO = 999
REV_AT_EPOCH   = 67063
BSTAR          = .26186E-3
MEAN_MOTION_DOT = .2299E-4
MEAN_MOTION_DDOT = 0

CCSDS_OMM_VERS = 2.0
CREATION_DATE  = 
ORIGINATOR     = 

OBJECT_NAME    = TERRA
OBJECT_ID      = 1999-068A
CENTER_NAME    = EARTH
REF_FRAME      = TEME
TIME_SYSTEM    = UTC
MEAN_ELEMENT_THEORY = SGP/SGP4

EPOCH          = 2025-12-01T10:22:37.281216
MEAN_MOTION    = 14.60931382
ECCENTRICITY   = .0003356
INCLINATION    = 97.9765
RA_OF_ASC_NODE = 27.5307
ARG_OF_PERICENTER = 120.7029
MEAN_ANOMALY   = 296.2723

EPHEMERIS_TYPE = 0
CLASSIFICATION_TYPE = U
NORAD_CAT_ID   = 25994
ELEMENT_SET_NO = 999
REV_AT_EPOCH   = 38073
BSTAR          = .13602E-3
MEAN_MOTION_DOT = .622E-5
MEAN_MOTION_DDOT = 0

CCSDS_OMM_VERS = 2.0
CREATION_DATE  = 
ORIGINATOR     = 

OBJECT_NAME    = SL-16 R/B
OBJECT_ID      = 2000-006B
CENTER_NAME    = EARTH
REF_FRAME      = TEME
TIME_SYSTEM    = UTC
MEAN_ELEMENT_THEORY = SGP/SGP4

EPOCH          = 2025-12-01T09:10:55.306848
MEAN_MOTION    = 14.15806057
ECCENTRICITY   = .0017816
INCLINATION    = 71.0026
RA_OF_ASC_NODE = 304.5372
ARG_OF_PERICENTER = 324.5563
MEAN_ANOMALY   = 35.4374

EPHEMERIS_TYPE = 0
CLASSIFICATION_TYPE = U
NORAD_CAT_ID   = 26070
ELEMENT_SET_NO = 999
REV_AT_EPOCH   = 33464
BSTAR          = .20274E-3
MEAN_MOTION_DOT = .351E-5
MEAN_MOTION_DDOT = 0

CCSDS_OMM_VERS = 2.0
CREATION_DATE  = 
ORIGINATOR     = 

OBJECT_NAME    = TITAN 4B R/B
OBJECT_ID      = 2000-047B
CENTER_NAME    = EARTH
REF_FRAME      = TEME
TIME_SYSTEM    = UTC
MEAN_ELEMENT_THEORY = SGP/SGP4

EPOCH          = 2025-12-01T09:45:23.073120
MEAN_MOTION    = 15.08648090
ECCENTRICITY   = .0039792
INCLINATION    = 67.9897
RA_OF_ASC_NODE = 316.6820
ARG_OF_PERICENTER = 157.9386
MEAN_ANOMALY   = 202.3487

EPHEMERIS_TYPE = 0
CLASSIFICATION_TYPE = U
NORAD_CAT_ID   = 26474
ELEMENT_SET_NO = 999
REV_AT_EPOCH   = 37808
BSTAR          = .27869E-3
MEAN_MOTION_DOT = .4321E-4
MEAN_MOTION_DDOT = 0

